COMMENT,ORIGINATOR,NORAD_CAT_ID,OBJECT_NAME,OBJECT_TYPE,CLASSIFICATION_TYPE,INTLDES,EPOCH,EPOCH_MICROSECONDS,MEAN_MOTION,ECCENTRICITY,INCLINATION,RA_OF_ASC_NODE,ARG_OF_PERICENTER,MEAN_ANOMALY,EPHEMERIS_TYPE,ELEMENT_SET_NO,REV_AT_EPOCH,BSTAR,MEAN_MOTION_DOT,MEAN_MOTION_DDOT,FILE,TLE_LINE0,TLE_LINE1,TLE_LINE2,OBJECT_ID,OBJECT_NUMBER,SEMIMAJOR_AXIS,PERIOD,APOGEE,PERIGEE,DECAYED
"GENERATED VIA SPACETRACK.ORG API","18 SPCS","48904","SPACEBEE-111","PAYLOAD","U","21059AB","2021-10-02 19:08:59","320320","15.12745629","0.0009638","97.5276","43.2185","271.4733","88.5394","0","999","1496","0.00022818","0.00003938","0","3141323","0 SPACEBEE-111","1 48904U 21059AB  21275.79790880  .00003938  00000-0  22818-3 0  9994","2 48904  97.5276  43.2185 0009638 271.4733  88.5394 15.12745629 14968","2021-059AB","48904","6905.968","95.191","534.489","521.177","1"
"GENERATED VIA SPACETRACK.ORG API","18 SPCS","48904","SPACEBEE-111","PAYLOAD","U","21059AB","2021-10-03 09:26:14","977824","15.1274993","0.0009684","97.5277","43.8057","269.1128","90.8993","0","999","1505","0.00020903","0.00003602","0","3142125","0 SPACEBEE-111","1 48904U 21059AB  21276.39322891  .00003602  00000-0  20903-3 0  9995","2 48904  97.5277  43.8057 0009684 269.1128  90.8993 15.12749930 15057","2021-059AB","48904","6905.955","95.191","534.508","521.132","1"
"GENERATED VIA SPACETRACK.ORG API","18 SPCS","48904","SPACEBEE-111","PAYLOAD","U","21059AB","2021-10-03 09:26:14","977824","15.1274993","0.0009684","97.5277","43.8057","269.1128","90.8993","0","999","1505","0.00020903","0.00003602","0","3142499","0 SPACEBEE-111","1 48904U 21059AB  21276.39322891  .00003602  00000-0  20903-3 0  9995","2 48904  97.5277  43.8057 0009684 269.1128  90.8993 15.12749930 15057","2021-059AB","48904","6905.955","95.191","534.508","521.132","1"
"GENERATED VIA SPACETRACK.ORG API","18 SPCS","48904","SPACEBEE-111","PAYLOAD","U","21059AB","2021-10-03 20:33:00","422496","15.12754197","0.0009709","97.5278","44.2626","267.3416","92.6703","0","999","1512","0.00022562","0.00003894","0","3143202","0 SPACEBEE-111","1 48904U 21059AB  21276.85625489  .00003894  00000-0  22562-3 0  9991","2 48904  97.5278  44.2626 0009709 267.3416  92.6703 15.12754197 15121","2021-059AB","48904","6905.942","95.191","534.512","521.102","1"
"GENERATED VIA SPACETRACK.ORG API","18 SPCS","48904","SPACEBEE-111","PAYLOAD","U","21059AB","2021-10-04 14:00:45","929088","15.12760122","0.0009734","97.5281","44.9805","264.4774","95.5347","0","999","1523","0.00023918","0.00004133","0","3144407","0 SPACEBEE-111","1 48904U 21059AB  21277.58386492  .00004133  00000-0  23918-3 0  9993","2 48904  97.5281  44.9805 0009734 264.4774  95.5347 15.12760122 15237","2021-059AB","48904","6905.924","95.190","534.511","521.067","1"
"GENERATED VIA SPACETRACK.ORG API","18 SPCS","48904","SPACEBEE-111","PAYLOAD","U","21059AB","2021-10-04 18:46:31","25856","15.12761827","0.0009744","97.5283","45.1763","263.7044","96.3077","0","999","1526","0.00024304","0.00004201","0","3144546","0 SPACEBEE-111","1 48904U 21059AB  21277.78230354  .00004201  00000-0  24304-3 0  9996","2 48904  97.5283  45.1763 0009744 263.7044  96.3077 15.12761827 15263","2021-059AB","48904","6905.919","95.190","534.513","521.055","1"
"GENERATED VIA SPACETRACK.ORG API","18 SPCS","48904","SPACEBEE-111","PAYLOAD","U","21059AB","2021-10-04 20:21:46","52352","15.12762243","0.000974","97.5283","45.2415","263.4443","96.5679","0","999","1527","0.0002391","0.00004132","0","3144803","0 SPACEBEE-111","1 48904U 21059AB  21277.84844968  .00004132  00000-0  23910-3 0  9990","2 48904  97.5283  45.2415 0009740 263.4443  96.5679 15.12762243 15278","2021-059AB","48904","6905.918","95.190","534.509","521.056","1"
"GENERATED VIA SPACETRACK.ORG API","18 SPCS","48904","SPACEBEE-111","PAYLOAD","U","21059AB","2021-10-05 07:28:31","183392","15.1276623","0.0009753","97.5284","45.6985","261.6243","98.3882","0","999","1534","0.00024976","0.00004319","0","3145988","0 SPACEBEE-111","1 48904U 21059AB  21278.31147203  .00004319  00000-0  24976-3 0  9991","2 48904  97.5284  45.6985 0009753 261.6243  98.3882 15.12766230 15341","2021-059AB","48904","6905.905","95.190","534.506","521.035","1"
"GENERATED VIA SPACETRACK.ORG API","18 SPCS","48904","SPACEBEE-111","PAYLOAD","U","21059AB","2021-10-06 00:56:16","216512","15.1277156","0.0009758","97.5288","46.4165","258.7332","101.2802","0","999","1545","0.00024035","0.00004155","0","3146603","0 SPACEBEE-111","1 48904U 21059AB  21279.03907658  .00004155  00000-0  24035-3 0  9993","2 48904  97.5288  46.4165 0009758 258.7332 101.2802 15.12771560 15455","2021-059AB","48904","6905.889","95.190","534.493","521.015","1"
"GENERATED VIA SPACETRACK.ORG API","18 SPCS","48904","SPACEBEE-111","PAYLOAD","U","21059AB","2021-10-06 10:27:46","116288","15.12774493","0.000977","97.529","46.8082","257.1494","102.8645","0","999","1551","0.00023083","0.00003988","0","3147912","0 SPACEBEE-111","1 48904U 21059AB  21279.43595042  .00003988  00000-0  23083-3 0  9992","2 48904  97.5290  46.8082 0009770 257.1494 102.8645 15.12774493 15513","2021-059AB","48904","6905.880","95.189","534.492","520.998","1"
"GENERATED VIA SPACETRACK.ORG API","18 SPCS","48904","SPACEBEE-111","PAYLOAD","U","21059AB","2021-10-06 21:34:30","883584","15.12779173","0.0009762","97.5293","47.2652","255.2663","104.7486","0","999","1558","0.00024248","0.00004193","0","3148521","0 SPACEBEE-111","1 48904U 21059AB  21279.89896856  .00004193  00000-0  24248-3 0  9992","2 48904  97.5293  47.2652 0009762 255.2663 104.7486 15.12779173 15583","2021-059AB","48904","6905.866","95.189","534.473","520.990","1"
"GENERATED VIA SPACETRACK.ORG API","18 SPCS","48904","SPACEBEE-111","PAYLOAD","U","21059AB","2021-10-07 02:20:15","758304","15.12780842","0.0009758","97.5294","47.4611","254.4936","105.5218","0","999","1561","0.00024415","0.00004223","0","3148809","0 SPACEBEE-111","1 48904U 21059AB  21280.09740461  .00004223  00000-0  24415-3 0  9996","2 48904  97.5294  47.4611 0009758 254.4936 105.5218 15.12780842 15611","2021-059AB","48904","6905.861","95.189","534.465","520.987","1"
"GENERATED VIA SPACETRACK.ORG API","18 SPCS","48904","SPACEBEE-111","PAYLOAD","U","21059AB","2021-10-07 08:41:15","567936","15.12782931","0.0009763","97.5294","47.7222","253.4582","106.5576","0","999","1565","0.00023808","0.00004116","0","3149232","0 SPACEBEE-111","1 48904U 21059AB  21280.36198574  .00004116  00000-0  23808-3 0  9994","2 48904  97.5294  47.7222 0009763 253.4582 106.5576 15.12782931 15657","2021-059AB","48904","6905.855","95.189","534.462","520.977","1"
"GENERATED VIA SPACETRACK.ORG API","18 SPCS","48904","SPACEBEE-111","PAYLOAD","U","21059AB","2021-10-07 21:23:15","53280","15.12787798","0.0009759","97.5297","48.2445","251.3668","108.6503","0","999","1573","0.00023715","0.000041","0","3150302","0 SPACEBEE-111","1 48904U 21059AB  21280.89114645  .00004100  00000-0  23715-3 0  9999","2 48904  97.5297  48.2445 0009759 251.3668 108.6503 15.12787798 15738","2021-059AB","48904","6905.840","95.188","534.444","520.965","1"
"GENERATED VIA SPACETRACK.ORG API","18 SPCS","48904","SPACEBEE-111","PAYLOAD","U","21059AB","2021-10-08 05:19:29","672544","15.12790232","0.0009766","97.5297","48.5709","250.0931","109.9248","0","999","1578","0.00022867","0.00003952","0","3150546","0 SPACEBEE-111","1 48904U 21059AB  21281.22187121  .00003952  00000-0  22867-3 0  9997","2 48904  97.5297  48.5709 0009766 250.0931 109.9248 15.12790232 15783","2021-059AB","48904","6905.832","95.188","534.442","520.953","1"
"GENERATED VIA SPACETRACK.ORG API","18 SPCS","48904","SPACEBEE-111","PAYLOAD","U","21059AB","2021-10-08 13:15:44","248608","15.12792821","0.0009771","97.5298","48.8973","248.8061","111.2126","0","999","1583","0.00022423","0.00003874","0","3151292","0 SPACEBEE-111","1 48904U 21059AB  21281.55259547  .00003874  00000-0  22423-3 0  9996","2 48904  97.5298  48.8973 0009771 248.8061 111.2126 15.12792821 15838","2021-059AB","48904","6905.825","95.188","534.437","520.942","1"
"GENERATED VIA SPACETRACK.ORG API","18 SPCS","48904","SPACEBEE-111","PAYLOAD","U","21059AB","2021-10-08 21:11:58","770240","15.12795262","0.0009778","97.5298","49.2237","247.4959","112.5237","0","999","1588","0.00021291","0.00003675","0","3152020","0 SPACEBEE-111","1 48904U 21059AB  21281.88331910  .00003675  00000-0  21291-3 0  9998","2 48904  97.5298  49.2237 0009778 247.4959 112.5237 15.12795262 15888","2021-059AB","48904","6905.817","95.188","534.435","520.930","1"
"GENERATED VIA SPACETRACK.ORG API","18 SPCS","48904","SPACEBEE-111","PAYLOAD","U","21059AB","2021-10-09 05:08:13","238304","15.12797771","0.000979","97.5298","49.5502","246.2429","113.7776","0","999","1593","0.00021063","0.00003635","0","3153337","0 SPACEBEE-111","1 48904U 21059AB  21282.21404211  .00003635  00000-0  21063-3 0  9994","2 48904  97.5298  49.5502 0009790 246.2429 113.7776 15.12797771 15933","2021-059AB","48904","6905.809","95.188","534.435","520.914","1"
"GENERATED VIA SPACETRACK.ORG API","18 SPCS","48904","SPACEBEE-111","PAYLOAD","U","21059AB","2021-10-09 09:53:57","903072","15.12799305","0.0009799","97.5298","49.746","245.4665","114.5545","0","999","1596","0.00020819","0.00003593","0","3153034","0 SPACEBEE-111","1 48904U 21059AB  21282.41247573  .00003593  00000-0  20819-3 0  9993","2 48904  97.5298  49.7460 0009799 245.4665 114.5545 15.12799305 15961","2021-059AB","48904","6905.805","95.188","534.437","520.903","1"
"GENERATED VIA SPACETRACK.ORG API","18 SPCS","48904","SPACEBEE-111","PAYLOAD","U","21059AB","2021-10-09 17:50:12","307200","15.1280199","0.0009812","97.5298","50.0724","244.1542","115.8677","0","999","1601","0.00020985","0.00003622","0","3153808","0 SPACEBEE-111","1 48904U 21059AB  21282.74319800  .00003622  00000-0  20985-3 0  9999","2 48904  97.5298  50.0724 0009812 244.1542 115.8677 15.12801990 16016","2021-059AB","48904","6905.797","95.188","534.438","520.886","1"
